[
    {
        "Altitude(m)": 610405.3211398891,
        "Argument of Periapsis(deg)": 0.0,
        "Eccentricity": 0.0,
        "Inclination(deg)": 60.0,
        "Latitude(deg)": 52.11126635603773,
        "Longitude(deg)": 172.47755786320928,
        "Mean Anomaly(deg)": 114.5455,
        "RAAN(deg)": 140.0,
        "Satellite Name": "Test1 623",
        "Satellite Number": 623,
        "Semi-Major Axis(m)": 6980739.136638005,
        "Time(s)": 0
    },
    {
        "Altitude(m)": 610321.8935788311,
        "Argument of Periapsis(deg)": 0.00010418945913296404,
        "Eccentricity": 0.0,
        "Inclination(deg)": 60.0,
        "Latitude(deg)": 51.745979864185216,
        "Longitude(deg)": 173.246449763439,
        "Mean Anomaly(deg)": 115.16560614546188,
        "RAAN(deg)": 139.99957995086024,
        "Satellite Name": "Test1 623",
        "Satellite Number": 623,
        "Semi-Major Axis(m)": 6980739.136638005,
        "Time(s)": 10
    },
    {
        "Altitude(m)": 610237.1018720606,
        "Argument of Periapsis(deg)": 0.0002083789182659281,
        "Eccentricity": 0.0,
        "Inclination(deg)": 60.0,
        "Latitude(deg)": 51.37517432252031,
        "Longitude(deg)": 174.0022891019704,
        "Mean Anomaly(deg)": 115.7857122909237,
        "RAAN(deg)": 139.99915990172053,
        "Satellite Name": "Test1 623",
        "Satellite Number": 623,
        "Semi-Major Axis(m)": 6980739.136638005,
        "Time(s)": 20
    },
    {
        "Altitude(m)": 610150.996200611,
        "Argument of Periapsis(deg)": 0.00031256837739889213,
        "Eccentricity": 0.0,
        "Inclination(deg)": 60.0,
        "Latitude(deg)": 50.999008315504035,
        "Longitude(deg)": 174.74526901072448,
        "Mean Anomaly(deg)": 116.4058184363855,
        "RAAN(deg)": 139.99873985258074,
        "Satellite Name": "Test1 623",
        "Satellite Number": 623,
        "Semi-Major Axis(m)": 6980739.136638005,
        "Time(s)": 30
    },
    {
        "Altitude(m)": 610063.6276080286,
        "Argument of Periapsis(deg)": 0.0004167578365318562,
        "Eccentricity": 0.0,
        "Inclination(deg)": 60.0,
        "Latitude(deg)": 50.61763667362372,
        "Longitude(deg)": 175.47559032321814,
        "Mean Anomaly(deg)": 117.02592458184733,
        "RAAN(deg)": 139.998319803441,
        "Satellite Name": "Test1 623",
        "Satellite Number": 623,
        "Semi-Major Axis(m)": 6980739.136638005,
        "Time(s)": 40
    },
    {
        "Altitude(m)": 609975.0479757362,
        "Argument of Periapsis(deg)": 0.0005209472956648203,
        "Eccentricity": 0.0,
        "Inclination(deg)": 60.0,
        "Latitude(deg)": 50.23121044826651,
        "Longitude(deg)": 176.19345951592402,
        "Mean Anomaly(deg)": 117.64603072730914,
        "RAAN(deg)": 139.99789975430127,
        "Satellite Name": "Test1 623",
        "Satellite Number": 623,
        "Semi-Major Axis(m)": 6980739.136638005,
        "Time(s)": 50
    },
    {
        "Altitude(m)": 609885.3099979849,
        "Argument of Periapsis(deg)": 0.0006251367547977843,
        "Eccentricity": 0.0,
        "Inclination(deg)": 60.0,
        "Latitude(deg)": 49.83987690125127,
        "Longitude(deg)": 176.89908823328807,
        "Mean Anomaly(deg)": 118.26613687277096,
        "RAAN(deg)": 139.99747970516154,
        "Satellite Name": "Test1 623",
        "Satellite Number": 623,
        "Semi-Major Axis(m)": 6980739.136638005,
        "Time(s)": 60
    },
    {
        "Altitude(m)": 609794.4671563528,
        "Argument of Periapsis(deg)": 0.0007293262139307483,
        "Eccentricity": 0.0,
        "Inclination(deg)": 60.0,
        "Latitude(deg)": 49.44377950759147,
        "Longitude(deg)": 177.592692882005,
        "Mean Anomaly(deg)": 118.8862430182328,
        "RAAN(deg)": 139.99705965602178,
        "Satellite Name": "Test1 623",
        "Satellite Number": 623,
        "Semi-Major Axis(m)": 6980739.136638005,
        "Time(s)": 70
    },
    {
        "Altitude(m)": 609702.5736938681,
        "Argument of Periapsis(deg)": 0.0008335156730637124,
        "Eccentricity": 0.0,
        "Inclination(deg)": 60.0,
        "Latitude(deg)": 49.043057970134406,
        "Longitude(deg)": 178.27449277974185,
        "Mean Anomaly(deg)": 119.50634916369464,
        "RAAN(deg)": 139.99663960688204,
        "Satellite Name": "Test1 623",
        "Satellite Number": 623,
        "Semi-Major Axis(m)": 6980739.136638005,
        "Time(s)": 80
    },
    {
        "Altitude(m)": 609609.6845887061,
        "Argument of Periapsis(deg)": 0.0009377051321966765,
        "Eccentricity": 0.0,
        "Inclination(deg)": 60.0,
        "Latitude(deg)": 48.63784824479045,
        "Longitude(deg)": 178.94470988178824,
        "Mean Anomaly(deg)": 120.1264553091565,
        "RAAN(deg)": 139.9962195577423,
        "Satellite Name": "Test1 623",
        "Satellite Number": 623,
        "Semi-Major Axis(m)": 6980739.136638005,
        "Time(s)": 90
    },
    {
        "Altitude(m)": 609515.8555275132,
        "Argument of Periapsis(deg)": 0.0010418945913296407,
        "Eccentricity": 0.0,
        "Inclination(deg)": 60.0,
        "Latitude(deg)": 48.22828257515188,
        "Longitude(deg)": 179.60356857023484,
        "Mean Anomaly(deg)": 120.74656145461832,
        "RAAN(deg)": 139.99579950860257,
        "Satellite Name": "Test1 623",
        "Satellite Number": 623,
        "Semi-Major Axis(m)": 6980739.136638005,
        "Time(s)": 100
    },
    {
        "Altitude(m)": 609421.1428783523,
        "Argument of Periapsis(deg)": 0.0011460840504626045,
        "Eccentricity": 0.0,
        "Inclination(deg)": 60.0,
        "Latitude(deg)": 47.81448953538128,
        "Longitude(deg)": -179.7487060099158,
        "Mean Anomaly(deg)": 121.36666760008016,
        "RAAN(deg)": 139.9953794594628,
        "Satellite Name": "Test1 623",
        "Satellite Number": 623,
        "Semi-Major Axis(m)": 6980739.136638005,
        "Time(s)": 110
    },
    {
        "Altitude(m)": 609325.6036632751,
        "Argument of Periapsis(deg)": 0.0012502735095955685,
        "Eccentricity": 0.0,
        "Inclination(deg)": 60.0,
        "Latitude(deg)": 47.39659408031825,
        "Longitude(deg)": -179.11188804480827,
        "Mean Anomaly(deg)": 121.986773745542,
        "RAAN(deg)": 139.99495941032308,
        "Satellite Name": "Test1 623",
        "Satellite Number": 623,
        "Semi-Major Axis(m)": 6980739.136638005,
        "Time(s)": 120
    },
    {
        "Altitude(m)": 609229.2955305469,
        "Argument of Periapsis(deg)": 0.0013544629687285324,
        "Eccentricity": 0.0,
        "Inclination(deg)": 60.0,
        "Latitude(deg)": 46.97471760184016,
        "Longitude(deg)": -178.48575109178023,
        "Mean Anomaly(deg)": 122.6068798910038,
        "RAAN(deg)": 139.99453936118334,
        "Satellite Name": "Test1 623",
        "Satellite Number": 623,
        "Semi-Major Axis(m)": 6980739.136638005,
        "Time(s)": 130
    },
    {
        "Altitude(m)": 609132.2767265431,
        "Argument of Periapsis(deg)": 0.0014586524278614966,
        "Eccentricity": 0.0,
        "Inclination(deg)": 60.0,
        "Latitude(deg)": 46.54897799058759,
        "Longitude(deg)": -177.8700695812464,
        "Mean Anomaly(deg)": 123.22698603646562,
        "RAAN(deg)": 139.9941193120436,
        "Satellite Name": "Test1 623",
        "Satellite Number": 623,
        "Semi-Major Axis(m)": 6980739.136638005,
        "Time(s)": 140
    },
    {
        "Altitude(m)": 609034.606067298,
        "Argument of Periapsis(deg)": 0.0015628418869944607,
        "Eccentricity": 0.0,
        "Inclination(deg)": 60.0,
        "Latitude(deg)": 46.11948970222977,
        "Longitude(deg)": -177.26461875766367,
        "Mean Anomaly(deg)": 123.84709218192742,
        "RAAN(deg)": 139.99369926290385,
        "Satellite Name": "Test1 623",
        "Satellite Number": 623,
        "Semi-Major Axis(m)": 6980739.136638005,
        "Time(s)": 150
    },
    {
        "Altitude(m)": 608936.3429097382,
        "Argument of Periapsis(deg)": 0.0016670313461274247,
        "Eccentricity": 0.0,
        "Inclination(deg)": 60.0,
        "Latitude(deg)": 45.68636382752408,
        "Longitude(deg)": -176.66917457540953,
        "Mean Anomaly(deg)": 124.46719832738926,
        "RAAN(deg)": 139.99327921376414,
        "Satellite Name": "Test1 623",
        "Satellite Number": 623,
        "Semi-Major Axis(m)": 6980739.136638005,
        "Time(s)": 160
    },
    {
        "Altitude(m)": 608837.5471226362,
        "Argument of Periapsis(deg)": 0.0017712208052603888,
        "Eccentricity": 0.0,
        "Inclination(deg)": 60.0,
        "Latitude(deg)": 45.24970816548918,
        "Longitude(deg)": -176.08351506536164,
        "Mean Anomaly(deg)": 125.08730447285112,
        "RAAN(deg)": 139.99285916462438,
        "Satellite Name": "Test1 623",
        "Satellite Number": 623,
        "Semi-Major Axis(m)": 6980739.136638005,
        "Time(s)": 170
    },
    {
        "Altitude(m)": 608738.2790572495,
        "Argument of Periapsis(deg)": 0.001875410264393353,
        "Eccentricity": 0.0,
        "Inclination(deg)": 60.0,
        "Latitude(deg)": 44.80962729906804,
        "Longitude(deg)": -175.50742014927,
        "Mean Anomaly(deg)": 125.70741061831295,
        "RAAN(deg)": 139.99243911548464,
        "Satellite Name": "Test1 623",
        "Satellite Number": 623,
        "Semi-Major Axis(m)": 6980739.136638005,
        "Time(s)": 180
    },
    {
        "Altitude(m)": 608638.5995176964,
        "Argument of Periapsis(deg)": 0.0019795997235263173,
        "Eccentricity": 0.0,
        "Inclination(deg)": 60.0,
        "Latitude(deg)": 44.36622267272277,
        "Longitude(deg)": -174.94067141754797,
        "Mean Anomaly(deg)": 126.32751676377478,
        "RAAN(deg)": 139.99201906634488,
        "Satellite Name": "Test1 623",
        "Satellite Number": 623,
        "Semi-Major Axis(m)": 6980739.136638005,
        "Time(s)": 190
    }
]